{
  "type": "FeatureCollection",
  "features": [
    {
      "type": "Feature",
      "properties": {
        "norad_id": 33791,
        "name": "COSMOS 2251 DEB",
        "group": "cosmos-2251-debris",
        "lat": -73.91746212857541,
        "lon": -51.24314734542711,
        "alt_km": 734.8170514300609,
        "timestamp": "2025-12-06T11:28:11.454758+00:00",
        "meta_object_name": "COSMOS 2251 DEB",
        "meta_object_id": "1993-036AG",
        "meta_epoch": "2025-12-05T23:24:35.678016",
        "meta_mean_motion": 14.43070565,
        "meta_eccentricity": 0.00305874,
        "meta_inclination": 74.176,
        "meta_ra_of_asc_node": 50.0377,
        "meta_arg_of_pericenter": 248.3422,
        "meta_mean_anomaly": 289.2408,
        "meta_ephemeris_type": 0,
        "meta_classification_type": "U",
        "meta_norad_cat_id": 33791,
        "meta_element_set_no": 999,
        "meta_rev_at_epoch": 87954,
        "meta_bstar": 0.001240929,
        "meta_mean_motion_dot": 4.161e-05,
        "meta_mean_motion_ddot": 0,
        "tle_line1": "1 33791U 93036AG  25339.97541294  .00004161  00000+0  12409-2 0  9996",
        "tle_line2": "2 33791  74.1760  50.0377 0030587 248.3422 289.2408 14.43070565879541"
      },
      "geometry": {
        "type": "Point",
        "coordinates": [
          -51.24314734542711,
          -73.91746212857541
        ]
      }
    },
    {
      "type": "Feature",
      "properties": {
        "norad_id": 33792,
        "name": "COSMOS 2251 DEB",
        "group": "cosmos-2251-debris",
        "lat": -17.549965648164108,
        "lon": -9.895556271331234,
        "alt_km": 1020.2979009758856,
        "timestamp": "2025-12-06T11:28:11.454769+00:00",
        "meta_object_name": "COSMOS 2251 DEB",
        "meta_object_id": "1993-036AH",
        "meta_epoch": "2025-12-05T12:54:32.172768",
        "meta_mean_motion": 13.45807432,
        "meta_eccentricity": 0.04268345,
        "meta_inclination": 73.901,
        "meta_ra_of_asc_node": 356.8452,
        "meta_arg_of_pericenter": 62.8411,
        "meta_mean_anomaly": 51.0216,
        "meta_ephemeris_type": 0,
        "meta_classification_type": "U",
        "meta_norad_cat_id": 33792,
        "meta_element_set_no": 999,
        "meta_rev_at_epoch": 82345,
        "meta_bstar": 0.0010780137,
        "meta_mean_motion_dot": 1.097e-05,
        "meta_mean_motion_ddot": 0,
        "tle_line1": "1 33792U 93036AH  25339.53787237  .00001097  00000+0  10780-2 0  9993",
        "tle_line2": "2 33792  73.9010 356.8452 0426834  62.8411  51.0216 13.45807432823452"
      },
      "geometry": {
        "type": "Point",
        "coordinates": [
          -9.895556271331234,
          -17.549965648164108
        ]
      }
    },
    {
      "type": "Feature",
      "properties": {
        "norad_id": 33793,
        "name": "COSMOS 2251 DEB",
        "group": "cosmos-2251-debris",
        "lat": 40.56013132166912,
        "lon": -32.93708973500089,
        "alt_km": 851.8941413074435,
        "timestamp": "2025-12-06T11:28:11.454780+00:00",
        "meta_object_name": "COSMOS 2251 DEB",
        "meta_object_id": "1993-036AJ",
        "meta_epoch": "2025-12-05T21:57:05.270112",
        "meta_mean_motion": 14.2768755,
        "meta_eccentricity": 0.00782732,
        "meta_inclination": 73.9802,
        "meta_ra_of_asc_node": 162.3214,
        "meta_arg_of_pericenter": 313.7814,
        "meta_mean_anomaly": 169.7824,
        "meta_ephemeris_type": 0,
        "meta_classification_type": "U",
        "meta_norad_cat_id": 33793,
        "meta_element_set_no": 999,
        "meta_rev_at_epoch": 87109,
        "meta_bstar": 0.0011344733,
        "meta_mean_motion_dot": 2.864e-05,
        "meta_mean_motion_ddot": 0,
        "tle_line1": "1 33793U 93036AJ  25339.91464433  .00002864  00000+0  11345-2 0  9997",
        "tle_line2": "2 33793  73.9802 162.3214 0078273 313.7814 169.7824 14.27687550871096"
      },
      "geometry": {
        "type": "Point",
        "coordinates": [
          -32.93708973500089,
          40.56013132166912
        ]
      }
    },
    {
      "type": "Feature",
      "properties": {
        "norad_id": 33795,
        "name": "COSMOS 2251 DEB",
        "group": "cosmos-2251-debris",
        "lat": 42.488285254431574,
        "lon": -105.63047911104405,
        "alt_km": 529.8944395212966,
        "timestamp": "2025-12-06T11:28:11.454790+00:00",
        "meta_object_name": "COSMOS 2251 DEB",
        "meta_object_id": "1993-036AL",
        "meta_epoch": "2025-12-05T17:53:25.628928",
        "meta_mean_motion": 15.05096,
        "meta_eccentricity": 0.00326799,
        "meta_inclination": 74.033,
        "meta_ra_of_asc_node": 91.0736,
        "meta_arg_of_pericenter": 177.0925,
        "meta_mean_anomaly": 311.2593,
        "meta_ephemeris_type": 0,
        "meta_classification_type": "U",
        "meta_norad_cat_id": 33795,
        "meta_element_set_no": 999,
        "meta_rev_at_epoch": 89916,
        "meta_bstar": 0.0026277428,
        "meta_mean_motion_dot": 0.00038001,
        "meta_mean_motion_ddot": 0,
        "tle_line1": "1 33795U 93036AL  25339.74543552  .00038001  00000+0  26277-2 0  9992",
        "tle_line2": "2 33795  74.0330  91.0736 0032679 177.0925 311.2593 15.05096000899163"
      },
      "geometry": {
        "type": "Point",
        "coordinates": [
          -105.63047911104405,
          42.488285254431574
        ]
      }
    },
    {
      "type": "Feature",
      "properties": {
        "norad_id": 33797,
        "name": "COSMOS 2251 DEB",
        "group": "cosmos-2251-debris",
        "lat": -51.99814080329409,
        "lon": 25.387884257695916,
        "alt_km": 749.1925566488262,
        "timestamp": "2025-12-06T11:28:11.454801+00:00",
        "meta_object_name": "COSMOS 2251 DEB",
        "meta_object_id": "1993-036AN",
        "meta_epoch": "2025-12-05T21:26:58.152768",
        "meta_mean_motion": 14.57804818,
        "meta_eccentricity": 0.00610541,
        "meta_inclination": 74.0487,
        "meta_ra_of_asc_node": 47.9701,
        "meta_arg_of_pericenter": 137.8726,
        "meta_mean_anomaly": 342.4263,
        "meta_ephemeris_type": 0,
        "meta_classification_type": "U",
        "meta_norad_cat_id": 33797,
        "meta_element_set_no": 999,
        "meta_rev_at_epoch": 88885,
        "meta_bstar": 0.00089535879,
        "meta_mean_motion_dot": 4.175e-05,
        "meta_mean_motion_ddot": 0,
        "tle_line1": "1 33797U 93036AN  25339.89372862  .00004175  00000+0  89536-3 0  9997",
        "tle_line2": "2 33797  74.0487  47.9701 0061054 137.8726 342.4263 14.57804818888856"
      },
      "geometry": {
        "type": "Point",
        "coordinates": [
          25.387884257695916,
          -51.99814080329409
        ]
      }
    },
    {
      "type": "Feature",
      "properties": {
        "norad_id": 33798,
        "name": "COSMOS 2251 DEB",
        "group": "cosmos-2251-debris",
        "lat": 55.09287570851872,
        "lon": -56.66402163924335,
        "alt_km": 793.9725928221069,
        "timestamp": "2025-12-06T11:28:11.454812+00:00",
        "meta_object_name": "COSMOS 2251 DEB",
        "meta_object_id": "1993-036AP",
        "meta_epoch": "2025-12-05T22:18:59.275008",
        "meta_mean_motion": 14.44601404,
        "meta_eccentricity": 0.00924959,
        "meta_inclination": 74.0277,
        "meta_ra_of_asc_node": 148.5895,
        "meta_arg_of_pericenter": 271.4268,
        "meta_mean_anomaly": 241.4684,
        "meta_ephemeris_type": 0,
        "meta_classification_type": "U",
        "meta_norad_cat_id": 33798,
        "meta_element_set_no": 999,
        "meta_rev_at_epoch": 88495,
        "meta_bstar": 0.0002793711,
        "meta_mean_motion_dot": 9.89e-06,
        "meta_mean_motion_ddot": 0,
        "tle_line1": "1 33798U 93036AP  25339.92985272  .00000989  00000+0  27937-3 0  9993",
        "tle_line2": "2 33798  74.0277 148.5895 0092495 271.4268 241.4684 14.44601404884959"
      },
      "geometry": {
        "type": "Point",
        "coordinates": [
          -56.66402163924335,
          55.09287570851872
        ]
      }
    },
    {
      "type": "Feature",
      "properties": {
        "norad_id": 33799,
        "name": "COSMOS 2251 DEB",
        "group": "cosmos-2251-debris",
        "lat": -56.4945359698879,
        "lon": 68.4891676924077,
        "alt_km": 649.3952568998666,
        "timestamp": "2025-12-06T11:28:11.454822+00:00",
        "meta_object_name": "COSMOS 2251 DEB",
        "meta_object_id": "1993-036AQ",
        "meta_epoch": "2025-12-05T18:25:55.734816",
        "meta_mean_motion": 14.79406227,
        "meta_eccentricity": 0.00241939,
        "meta_inclination": 74.0322,
        "meta_ra_of_asc_node": 95.5127,
        "meta_arg_of_pericenter": 168.4556,
        "meta_mean_anomaly": 311.953,
        "meta_ephemeris_type": 0,
        "meta_classification_type": "U",
        "meta_norad_cat_id": 33799,
        "meta_element_set_no": 999,
        "meta_rev_at_epoch": 88708,
        "meta_bstar": 0.0022741129,
        "meta_mean_motion_dot": 0.00017058,
        "meta_mean_motion_ddot": 0,
        "tle_line1": "1 33799U 93036AQ  25339.76800619  .00017058  00000+0  22741-2 0  9999",
        "tle_line2": "2 33799  74.0322  95.5127 0024193 168.4556 311.9530 14.79406227887089"
      },
      "geometry": {
        "type": "Point",
        "coordinates": [
          68.4891676924077,
          -56.4945359698879
        ]
      }
    }
  ]
}